CTC2_L_00374016-03
1 17698U 26004UI  26070.40847222  .00000000  00000+0  00000-0 0  9996
2 17698  85.0000 180.0000 0000000   0.0000   0.0000 13.16009679    18
CTC2_L_00374016-04
1 17699U 23932PF  26070.40847222  .00000000  00000+0  00000-0 0  9994
2 17699  85.0000 180.0000 0000000   0.0000  90.0000 13.16009679    18
CTC2_L_00374017-01
1 17700U 25971AC  26070.40847222  .00000000  00000+0  00000-0 0  9992
2 17700  85.0000 192.0000 0000000   0.0000 192.0000 13.16009679    17
CTC2_L_00374017-02
1 17701U 26471QR  26070.40847222  .00000000  00000+0  00000-0 0  9999
2 17701  85.0000 192.0000 0000000   0.0000 282.0000 13.16009679    18
CTC2_L_00374017-03
1 17702U 23546NF  26070.40847222  .00000000  00000+0  00000-0 0  9990
2 17702  85.0000 192.0000 0000000   0.0000  12.0000 13.16009679    10
CTC2_L_00374017-04
1 17703U 23227VX  26070.40847222  .00000000  00000+0  00000-0 0  9997
2 17703  85.0000 192.0000 0000000   0.0000 102.0000 13.16009679    11
CTC2_L_00374018-01
1 17704U 24043AO  26070.40847222  .00000000  00000+0  00000-0 0  9995
2 17704  85.0000 204.0000 0000000   0.0000 204.0000 13.16009679    19
CTC2_L_00374018-02
1 17705U 24349NI  26070.40847222  .00000000  00000+0  00000-0 0  9995
2 17705  85.0000 204.0000 0000000   0.0000 294.0000 13.16009679    19
CTC2_L_00374018-03
1 17706U 24086BJ  26070.40847222  .00000000  00000+0  00000-0 0  9994
2 17706  85.0000 204.0000 0000000   0.0000  24.0000 13.16009679    11
CTC2_L_00374018-04
1 17707U 24682ZP  26070.40847222  .00000000  00000+0  00000-0 0  9997
2 17707  85.0000 204.0000 0000000   0.0000 114.0000 13.16009679    12
CTC2_L_00374019-01
1 17708U 25740HB  26070.40847222  .00000000  00000+0  00000-0 0  9994
2 17708  85.0000 216.0000 0000000   0.0000 216.0000 13.16009679    19
CTC2_L_00374019-02
1 17709U 25844PE  26070.40847222  .00000000  00000+0  00000-0 0  9990
2 17709  85.0000 216.0000 0000000   0.0000 306.0000 13.16009679    10
CTC2_L_00374019-03
1 17710U 23028IE  26070.40847222  .00000000  00000+0  00000-0 0  9994
2 17710  85.0000 216.0000 0000000   0.0000  36.0000 13.16009679    12
CTC2_L_00374019-04
1 17711U 23901KQ  26070.40847222  .00000000  00000+0  00000-0 0  9995
2 17711  85.0000 216.0000 0000000   0.0000 126.0000 13.16009679    13
CTC2_L_00374020-01
1 17712U 22237NE  26070.40847222  .00000000  00000+0  00000-0 0  9997
2 17712  85.0000 228.0000 0000000   0.0000 228.0000 13.16009679    10
CTC2_L_00374020-02
1 17713U 23365CD  26070.40847222  .00000000  00000+0  00000-0 0  9991
2 17713  85.0000 228.0000 0000000   0.0000 318.0000 13.16009679    11
CTC2_L_00374020-03
1 17714U 24997ZD  26070.40847222  .00000000  00000+0  00000-0 0  9994
2 17714  85.0000 228.0000 0000000   0.0000  48.0000 13.16009679    12
CTC2_L_00374020-04
1 17715U 23641CN  26070.40847222  .00000000  00000+0  00000-0 0  9990
2 17715  85.0000 228.0000 0000000   0.0000 138.0000 13.16009679    13
CTC2_L_00374021-01
1 17716U 26036LM  26070.40847222  .00000000  00000+0  00000-0 0  9992
2 17716  85.0000 240.0000 0000000   0.0000 240.0000 13.16009679    12
CTC2_L_00374021-02
1 17717U 24158GK  26070.40847222  .00000000  00000+0  00000-0 0  9996
2 17717  85.0000 240.0000 0000000   0.0000 330.0000 13.16009679    13
CTC2_L_00374021-03
1 17718U 24142BN  26070.40847222  .00000000  00000+0  00000-0 0  9990
2 17718  85.0000 240.0000 0000000   0.0000  60.0000 13.16009679    14
CTC2_L_00374021-04
1 17719U 26357BH  26070.40847222  .00000000  00000+0  00000-0 0  9991
2 17719  85.0000 240.0000 0000000   0.0000 150.0000 13.16009679    15
CTC2_L_00374022-01
1 17720U 25227RI  26070.40847222  .00000000  00000+0  00000-0 0  9998
2 17720  85.0000 252.0000 0000000   0.0000 252.0000 13.16009679    13
CTC2_L_00374022-02
1 17721U 25963UI  26070.40847222  .00000000  00000+0  00000-0 0  9996
2 17721  85.0000 252.0000 0000000   0.0000 342.0000 13.16009679    14
CTC2_L_00374022-03
1 17722U 22806MU  26070.40847222  .00000000  00000+0  00000-0 0  9990
2 17722  85.0000 252.0000 0000000   0.0000  72.0000 13.16009679    15
CTC2_L_00374022-04
1 17723U 25975HZ  26070.40847222  .00000000  00000+0  00000-0 0  9991
2 17723  85.0000 252.0000 0000000   0.0000 162.0000 13.16009679    16
CTC2_L_00374023-01
1 17724U 25761FX  26070.40847222  .00000000  00000+0  00000-0 0  9995
2 17724  85.0000 264.0000 0000000   0.0000 264.0000 13.16009679    13
CTC2_L_00374023-02
1 17725U 25044TS  26070.40847222  .00000000  00000+0  00000-0 0  9990
2 17725  85.0000 264.0000 0000000   0.0000 354.0000 13.16009679    14
CTC2_L_00374023-03
1 17726U 23264DR  26070.40847222  .00000000  00000+0  00000-0 0  9993
2 17726  85.0000 264.0000 0000000   0.0000  84.0000 13.16009679    15
CTC2_L_00374023-04
1 17727U 25604MS  26070.40847222  .00000000  00000+0  00000-0 0  9994
2 17727  85.0000 264.0000 0000000   0.0000 174.0000 13.16009679    16
CTC2_L_00374024-01
1 17728U 23897XO  26070.40847222  .00000000  00000+0  00000-0 0  9997
2 17728  85.0000 276.0000 0000000   0.0000 276.0000 13.16009679    13
CTC2_L_00374024-02
1 17729U 22883CO  26070.40847222  .00000000  00000+0  00000-0 0  9992
2 17729  85.0000 276.0000 0000000   0.0000   6.0000 13.16009679    15
CTC2_L_00374024-03
1 17730U 22410WC  26070.40847222  .00000000  00000+0  00000-0 0  9990
2 17730  85.0000 276.0000 0000000   0.0000  96.0000 13.16009679    16
CTC2_L_00374024-04
1 17731U 26599IV  26070.40847222  .00000000  00000+0  00000-0 0  9993
2 17731  85.0000 276.0000 0000000   0.0000 186.0000 13.16009679    17
CTC2_L_00374025-01
1 17732U 25559QP  26070.40847222  .00000000  00000+0  00000-0 0  9999
2 17732  85.0000 288.0000 0000000   0.0000 288.0000 13.16009679    14
CTC2_L_00374025-02
1 17733U 23988JB  26070.40847222  .00000000  00000+0  00000-0 0  9994
2 17733  85.0000 288.0000 0000000   0.0000  18.0000 13.16009679    16
CTC2_L_00374025-03
1 17734U 22826XU  26070.40847222  .00000000  00000+0  00000-0 0  9995
2 17734  85.0000 288.0000 0000000   0.0000 108.0000 13.16009679    17
CTC2_L_00374025-04
1 17735U 26118GY  26070.40847222  .00000000  00000+0  00000-0 0  9994
2 17735  85.0000 288.0000 0000000   0.0000 198.0000 13.16009679    17
CTC2_L_00374026-01
1 17736U 26456LA  26070.40847222  .00000000  00000+0  00000-0 0  9990
2 17736  85.0000 300.0000 0000000   0.0000 300.0000 13.16009679    18
CTC2_L_00374026-02
1 17737U 24801XA  26070.40847222  .00000000  00000+0  00000-0 0  9993
2 17737  85.0000 300.0000 0000000   0.0000  30.0000 13.16009679    19
CTC2_L_00374026-03
1 17738U 23067RV  26070.40847222  .00000000  00000+0  00000-0 0  9997
2 17738  85.0000 300.0000 0000000   0.0000 120.0000 13.16009679    10
CTC2_L_00374026-04
1 17739U 24749LR  26070.40847222  .00000000  00000+0  00000-0 0  9996
2 17739  85.0000 300.0000 0000000   0.0000 210.0000 13.16009679    11
CTC2_L_00374027-01
1 17740U 23550TO  26070.40847222  .00000000  00000+0  00000-0 0  9997
2 17740  85.0000 312.0000 0000000   0.0000 312.0000 13.16009679    19
CTC2_L_00374027-02
1 17741U 25662YF  26070.40847222  .00000000  00000+0  00000-0 0  9994
2 17741  85.0000 312.0000 0000000   0.0000  42.0000 13.16009679    10
CTC2_L_00374027-03
1 17742U 25369HW  26070.40847222  .00000000  00000+0  00000-0 0  9999
2 17742  85.0000 312.0000 0000000   0.0000 132.0000 13.16009679    11
CTC2_L_00374027-04
1 17743U 26116WO  26070.40847222  .00000000  00000+0  00000-0 0  9991
2 17743  85.0000 312.0000 0000000   0.0000 222.0000 13.16009679    12
CTC2_L_00374028-01
1 17744U 26694UL  26070.40847222  .00000000  00000+0  00000-0 0  9993
2 17744  85.0000 324.0000 0000000   0.0000 324.0000 13.16009679    19
CTC2_L_00374028-02
1 17745U 25345G   26070.40847222  .00000000  00000+0  00000-0 0  9996
2 17745  85.0000 324.0000 0000000   0.0000  54.0000 13.16009679    10
CTC2_L_00374028-03
1 17746U 24757AA  26070.40847222  .00000000  00000+0  00000-0 0  9993
2 17746  85.0000 324.0000 0000000   0.0000 144.0000 13.16009679    11
CTC2_L_00374028-04
1 17747U 25396BQ  26070.40847222  .00000000  00000+0  00000-0 0  9994
2 17747  85.0000 324.0000 0000000   0.0000 234.0000 13.16009679    12
CTC2_L_00374029-01
1 17748U 26462EG  26070.40847222  .00000000  00000+0  00000-0 0  9990
2 17748  85.0000 336.0000 0000000   0.0000 336.0000 13.16009679    19
CTC2_L_00374029-02
1 17749U 24992HX  26070.40847222  .00000000  00000+0  00000-0 0  9997
2 17749  85.0000 336.0000 0000000   0.0000  66.0000 13.16009679    10
CTC2_L_00374029-03
1 17750U 22208IQ  26070.40847222  .00000000  00000+0  00000-0 0  9997
2 17750  85.0000 336.0000 0000000   0.0000 156.0000 13.16009679    12
CTC2_L_00374029-04
1 17751U 23084SC  26070.40847222  .00000000  00000+0  00000-0 0  9991
2 17751  85.0000 336.0000 0000000   0.0000 246.0000 13.16009679    13
CTC2_L_00374030-01
1 17752U 26391EC  26070.40847222  .00000000  00000+0  00000-0 0  9996
2 17752  85.0000 348.0000 0000000   0.0000 348.0000 13.16009679    10
CTC2_L_00374030-02
1 17753U 22383SU  26070.40847222  .00000000  00000+0  00000-0 0  9994
2 17753  85.0000 348.0000 0000000   0.0000  78.0000 13.16009679    11
CTC2_L_00374030-03
1 17754U 25385MI  26070.40847222  .00000000  00000+0  00000-0 0  9990
2 17754  85.0000 348.0000 0000000   0.0000 168.0000 13.16009679    12
CTC2_L_00374030-04
1 17755U 24891T   26070.40847222  .00000000  00000+0  00000-0 0  9992
2 17755  85.0000 348.0000 0000000   0.0000 258.0000 13.16009679    13
